[Satellite]
VERSION=1.1
NAME=HODOYOSHI-1
NICKNAME=HODOYOSHI-1
TLE1=1 40299U 14070B   15055.48286174  .00004582  00000-0  22672-3 0  9993
TLE2=2 40299  97.4628 138.4582 0013528 161.1597 254.9528 15.18225527 16710
